SAUDISAT 5A             
1 43831U 18102A   26188.20197289  .00004282  00000+0  15793-3 0  9997
2 43831  97.3055 249.3985 0011012  68.6175 291.6239 15.28265176418736
SAUDISAT 5B             
1 43833U 18102C   26188.21752189  .00003933  00000+0  14419-3 0  9992
2 43833  97.3163 252.5197 0011766  70.1371 290.1136 15.28511288418852
GAOFEN-10R              
1 44622U 19066A   26188.19244828  .00001007  00000+0  13046-3 0  9997
2 44622  98.0505 141.9178 0007144  73.7226 286.4772 14.83044946365341
CARTOSAT-3              
1 44804U 19081A   26188.17984936  .00002724  00000+0  13206-3 0  9990
2 44804  97.4291 249.7243 0013310  86.3182 273.9574 15.19286931366503
GAOFEN-12 01            
1 44819U 19082A   26188.22080557  .00000310  00000+0  47121-4 0  9992
2 44819  97.8104 194.0717 0001400  52.8708 307.2632 14.80475019357053
CSG-1                   
1 44873U 19092A   26188.16949196  .00000371  00000+0  53146-4 0  9990
2 44873  97.8893  11.4830 0001488  90.5963 269.5420 14.82146564354430
NEMO-HD                 
1 46277U 20061F   26188.14558225  .00007980  00000+0  17102-3 0  9999
2 46277  97.1905 249.9009 0001228  77.4315 282.7071 15.45018872325066
SENTINEL-6A             
1 46984U 20086A   26188.15099898 -.00000046  00000+0  66482-4 0  9991
2 46984  66.0416  93.5889 0007835 270.0365  89.9753 12.80930149262888
CAS500-1                
1 47932U 21022A   26188.20528999  .00004778  00000+0  22360-3 0  9992
2 47932  97.3874  83.0512 0004043 201.1519 158.9550 15.20210842293804
GAOFEN-12 02            
1 48079U 21026A   26188.23401998  .00000327  00000+0  49908-4 0  9995
2 48079  97.9929 186.3332 0005280 153.6929 206.4552 14.80311960284721
PLEIADES NEO 3          
1 48268U 21034A   26188.17522944 -.00002582  00000+0 -32162-3 0  9992
2 48268  97.8940 262.6540 0001380  81.9451 278.1918 14.81667750280610
PLEIADES NEO 4          
1 49070U 21073E   26188.20897956 -.00000247  00000+0 -24785-4 0  9998
2 49070  97.8931 262.6838 0001286  91.7212 268.4148 14.81677135264337
LANDSAT 9               
1 49260U 21088A   26187.69877270  .00000321  00000+0  81232-4 0  9995
2 49260  98.2273 257.6394 0001167  89.6982 270.4350 14.57111056253841
CSG-2                   
1 51444U 22008A   26188.20321056  .00000563  00000+0  77280-4 0  9995
2 51444  97.8894  11.5104 0001552  86.0387 274.1004 14.82159167239558
GAOFEN-12 03            
1 52912U 22069A   26188.13219840  .00001543  00000+0  21036-3 0  9998
2 52912  97.8249  75.4976 0002511  81.4523 278.6974 14.80070941217568
SWOT                    
1 54754U 22173A   26188.13834731 -.00000008  00000+0 -36342-5 0  9997
2 54754  77.6104   8.3751 0000281  77.6727 282.4456 14.00171850181944
GAOFEN-12 04            
1 57654U 23123A   26188.21789332  .00000807  00000+0  11421-3 0  9994
2 57654  97.9108 105.9386 0003836  66.2953 293.8661 14.79764889155599
PARS 1                  
1 59065U 24039Q   26188.18604073  .00008225  00000+0  16925-3 0  9999
2 59065  97.4835 169.7421 0010721  52.7743 307.4482 15.46164687131733
RESURS-P 4              
1 59371U 24061A   26188.18225906  .00002557  00000+0  84565-4 0  9996
2 59371  97.2755 135.7344 0003193 101.4578 258.7023 15.32248474126827
LEGION 1                
1 59625U 24081A   26188.15086816  .00003167  00000+0  16451-3 0  9998
2 59625  97.5008 265.7959 0007838 303.1623  56.8858 15.16808077120562
LEGION 2                
1 59626U 24081B   26188.18113610  .00002978  00000+0  15495-3 0  9991
2 59626  97.5009 265.9229 0009867 265.2793  94.7313 15.16786344120576
ALOS-4 (DAICHI-4)       
1 60182U 24123A   26188.24548715  .00001439  00000+0  19955-3 0  9998
2 60182  97.9220 285.1335 0001613  97.9060 262.2335 14.79466478108847
LEGION 3                
1 60452U 24146A   26188.09777024  .00002309  00000+0  13304-3 0  9992
2 60452  45.0019 283.7902 0008843 291.8241  68.1697 15.15621872105044
LEGION 4                
1 60453U 24146B   26188.03277475  .00003052  00000+0  16869-3 0  9997
2 60453  45.0022  16.0196 0011574  60.7587 299.4448 15.16197339103882
SENTINEL-2C             
1 60989U 24157A   26188.17254307  .00000080  00000+0  47103-4 0  9991
2 60989  98.5685 262.6713 0000939  95.7763 264.3527 14.30814111 95849
IONOSFERA-M 1           
1 61735U 24199A   26188.16633047  .00000026  00000+0  31441-4 0  9996
2 61735  98.7148  61.1252 0002214  83.3321 276.8109 14.22757934130547
IONOSFERA-M 2           
1 61736U 24199B   26188.13025209  .00000030  00000+0  32992-4 0  9996
2 61736  98.7147  61.0000 0000320  79.2971 280.8243 14.22761338133661
PRSC-EO1                
1 62725U 25012A   26188.16925236  .00005221  00000+0  26207-3 0  9990
2 62725  97.4213 260.2382 0006225 174.1809 185.9498 15.17714280 81221
BIOMASS                 
1 63772U 25090A   26187.94542681  .00000945  00000+0  17510-3 0  9998
2 63772  98.0749  14.9708 0001427  92.8729 267.2639 14.67534779 63584
GOSAT-GW (IBUKI GW)     
1 64694U 25141A   26188.16731707  .00000661  00000+0  12491-3 0  9991
2 64694  98.0566 125.1597 0001417  84.3552 275.7814 14.67554142 54771
IONOSFERA-M 3           
1 64876U 25155A   26188.16581218  .00000042  00000+0  38771-4 0  9991
2 64876  98.6035 149.5689 0002016 124.4473 235.6895 14.21489840 49248
