OBJECT_NAME,OBJECT_ID,EPOCH,MEAN_MOTION,ECCENTRICITY,INCLINATION,RA_OF_ASC_NODE,ARG_OF_PERICENTER,MEAN_ANOMALY,EPHEMERIS_TYPE,CLASSIFICATION_TYPE,NORAD_CAT_ID,ELEMENT_SET_NO,REV_AT_EPOCH,BSTAR,MEAN_MOTION_DOT,MEAN_MOTION_DDOT
SAUDISAT 5A,2018-102A,2026-07-07T04:50:50.457696,15.28265176,.0011012,97.3055,249.3985,68.6175,291.6239,0,U,43831,999,41873,.15793E-3,.4282E-4,0
SAUDISAT 5B,2018-102C,2026-07-07T05:13:13.891296,15.28511288,.0011766,97.3163,252.5197,70.1371,290.1136,0,U,43833,999,41885,.14419E-3,.3933E-4,0
GAOFEN-10R,2019-066A,2026-07-07T04:37:07.531392,14.83044946,.0007144,98.0505,141.9178,73.7226,286.4772,0,U,44622,999,36534,.13046E-3,.1007E-4,0
CARTOSAT-3,2019-081A,2026-07-07T04:18:58.984704,15.19286931,.001331,97.4291,249.7243,86.3182,273.9574,0,U,44804,999,36650,.13206E-3,.2724E-4,0
GAOFEN-12 01,2019-082A,2026-07-07T05:17:57.601248,14.80475019,.00014,97.8104,194.0717,52.8708,307.2632,0,U,44819,999,35705,.47121E-4,.31E-5,0
CSG-1,2019-092A,2026-07-07T04:04:04.105344,14.82146564,.0001488,97.8893,11.4830,90.5963,269.5420,0,U,44873,999,35443,.53146E-4,.371E-5,0
NEMO-HD,2020-061F,2026-07-07T03:29:38.306400,15.45018872,.0001228,97.1905,249.9009,77.4315,282.7071,0,U,46277,999,32506,.17102E-3,.798E-4,0
SENTINEL-6A,2020-086A,2026-07-07T03:37:26.311872,12.80930149,.0007835,66.0416,93.5889,270.0365,89.9753,0,U,46984,999,26288,.66482E-4,-.46E-6,0
CAS500-1,2021-022A,2026-07-07T04:55:37.055136,15.20210842,.0004043,97.3874,83.0512,201.1519,158.9550,0,U,47932,999,29380,.2236E-3,.4778E-4,0
GAOFEN-12 02,2021-026A,2026-07-07T05:36:59.326272,14.80311960,.000528,97.9929,186.3332,153.6929,206.4552,0,U,48079,999,28472,.49908E-4,.327E-5,0
PLEIADES NEO 3,2021-034A,2026-07-07T04:12:19.823616,14.81667750,.000138,97.8940,262.6540,81.9451,278.1918,0,U,48268,999,28061,-.32162E-3,-.2582E-4,0
PLEIADES NEO 4,2021-073E,2026-07-07T05:00:55.833984,14.81677135,.0001286,97.8931,262.6838,91.7212,268.4148,0,U,49070,999,26433,-.24785E-4,-.247E-5,0
LANDSAT 9,2021-088A,2026-07-06T16:46:13.961280,14.57111056,.0001167,98.2273,257.6394,89.6982,270.4350,0,U,49260,999,25384,.81232E-4,.321E-5,0
CSG-2,2022-008A,2026-07-07T04:52:37.392384,14.82159167,.0001552,97.8894,11.5104,86.0387,274.1004,0,U,51444,999,23955,.7728E-4,.563E-5,0
GAOFEN-12 03,2022-069A,2026-07-07T03:10:21.941760,14.80070941,.0002511,97.8249,75.4976,81.4523,278.6974,0,U,52912,999,21756,.21036E-3,.1543E-4,0
SWOT,2022-173A,2026-07-07T03:19:13.207584,14.00171850,.0000281,77.6104,8.3751,77.6727,282.4456,0,U,54754,999,18194,-.36342E-5,-.8E-7,0
GAOFEN-12 04,2023-123A,2026-07-07T05:13:45.982848,14.79764889,.0003836,97.9108,105.9386,66.2953,293.8661,0,U,57654,999,15559,.11421E-3,.807E-5,0
PARS 1,2024-039Q,2026-07-07T04:27:53.919072,15.46164687,.0010721,97.4835,169.7421,52.7743,307.4482,0,U,59065,999,13173,.16925E-3,.8225E-4,0
RESURS-P 4,2024-061A,2026-07-07T04:22:27.182784,15.32248474,.0003193,97.2755,135.7344,101.4578,258.7023,0,U,59371,999,12682,.84565E-4,.2557E-4,0
LEGION 1,2024-081A,2026-07-07T03:37:15.009024,15.16808077,.0007838,97.5008,265.7959,303.1623,56.8858,0,U,59625,999,12056,.16451E-3,.3167E-4,0
LEGION 2,2024-081B,2026-07-07T04:20:50.159040,15.16786344,.0009867,97.5009,265.9229,265.2793,94.7313,0,U,59626,999,12057,.15495E-3,.2978E-4,0
ALOS-4 (DAICHI-4),2024-123A,2026-07-07T05:53:30.089760,14.79466478,.0001613,97.9220,285.1335,97.9060,262.2335,0,U,60182,999,10884,.19955E-3,.1439E-4,0
LEGION 3,2024-146A,2026-07-07T02:20:47.348736,15.15621872,.0008843,45.0019,283.7902,291.8241,68.1697,0,U,60452,999,10504,.13304E-3,.2309E-4,0
LEGION 4,2024-146B,2026-07-07T00:47:11.738400,15.16197339,.0011574,45.0022,16.0196,60.7587,299.4448,0,U,60453,999,10388,.16869E-3,.3052E-4,0
SENTINEL-2C,2024-157A,2026-07-07T04:08:27.721248,14.30814111,.0000939,98.5685,262.6713,95.7763,264.3527,0,U,60989,999,9584,.47103E-4,.8E-6,0
IONOSFERA-M 1,2024-199A,2026-07-07T03:59:30.952608,14.22757934,.0002214,98.7148,61.1252,83.3321,276.8109,0,U,61735,999,13054,.31441E-4,.26E-6,0
IONOSFERA-M 2,2024-199B,2026-07-07T03:07:33.780576,14.22761338,.000032,98.7147,61.0000,79.2971,280.8243,0,U,61736,999,13366,.32992E-4,.3E-6,0
PRSC-EO1,2025-012A,2026-07-07T04:03:43.403904,15.17714280,.0006225,97.4213,260.2382,174.1809,185.9498,0,U,62725,999,8122,.26207E-3,.5221E-4,0
BIOMASS,2025-090A,2026-07-06T22:41:24.876384,14.67534779,.0001427,98.0749,14.9708,92.8729,267.2639,0,U,63772,999,6358,.1751E-3,.945E-5,0
GOSAT-GW (IBUKI GW),2025-141A,2026-07-07T04:00:56.194848,14.67554142,.0001417,98.0566,125.1597,84.3552,275.7814,0,U,64694,999,5477,.12491E-3,.661E-5,0
IONOSFERA-M 3,2025-155A,2026-07-07T03:58:46.172352,14.21489840,.0002016,98.6035,149.5689,124.4473,235.6895,0,U,64876,999,4924,.38771E-4,.42E-6,0
